[{"OBJECT_NAME":"SHIJIAN-6 02B (SJ-6 02B)","OBJECT_ID":"2006-046B","EPOCH":"2026-04-25T23:00:56.229696","MEAN_MOTION":15.01212188,"ECCENTRICITY":0.00109758,"INCLINATION":97.7141,"RA_OF_ASC_NODE":145.3467,"ARG_OF_PERICENTER":240.5475,"MEAN_ANOMALY":119.4654,"EPHEMERIS_TYPE":0,"CLASSIFICATION_TYPE":"U","NORAD_CAT_ID":29506,"ELEMENT_SET_NO":999,"REV_AT_EPOCH":6290,"BSTAR":0.0001288714,"MEAN_MOTION_DOT":1.595e-5,"MEAN_MOTION_DDOT":0},{"OBJECT_NAME":"FGRST (GLAST)","OBJECT_ID":"2008-029A","EPOCH":"2026-04-25T13:53:41.975520","MEAN_MOTION":15.23657127,"ECCENTRICITY":0.00087116,"INCLINATION":25.5812,"RA_OF_ASC_NODE":209.6846,"ARG_OF_PERICENTER":67.841,"MEAN_ANOMALY":292.3052,"EPHEMERIS_TYPE":0,"CLASSIFICATION_TYPE":"U","NORAD_CAT_ID":33053,"ELEMENT_SET_NO":999,"REV_AT_EPOCH":98780,"BSTAR":0.00011872811,"MEAN_MOTION_DOT":3.267e-5,"MEAN_MOTION_DDOT":0},{"OBJECT_NAME":"SDO","OBJECT_ID":"2010-005A","EPOCH":"2026-04-25T09:58:43.614048","MEAN_MOTION":1.0027261,"ECCENTRICITY":0.00011198,"INCLINATION":34.5445,"RA_OF_ASC_NODE":87.1361,"ARG_OF_PERICENTER":34.5839,"MEAN_ANOMALY":139.6162,"EPHEMERIS_TYPE":0,"CLASSIFICATION_TYPE":"U","NORAD_CAT_ID":36395,"ELEMENT_SET_NO":999,"REV_AT_EPOCH":5953,"BSTAR":0,"MEAN_MOTION_DOT":-6.0e-7,"MEAN_MOTION_DDOT":0},{"OBJECT_NAME":"CRYOSAT 2","OBJECT_ID":"2010-013A","EPOCH":"2026-04-25T21:48:56.358432","MEAN_MOTION":14.51905127,"ECCENTRICITY":0.00026659,"INCLINATION":92.0288,"RA_OF_ASC_NODE":264.6134,"ARG_OF_PERICENTER":92.9973,"MEAN_ANOMALY":267.1539,"EPHEMERIS_TYPE":0,"CLASSIFICATION_TYPE":"U","NORAD_CAT_ID":36508,"ELEMENT_SET_NO":999,"REV_AT_EPOCH":85049,"BSTAR":5.47704e-5,"MEAN_MOTION_DOT":2.24e-6,"MEAN_MOTION_DDOT":0},{"OBJECT_NAME":"X-SAT","OBJECT_ID":"2011-015C","EPOCH":"2026-04-25T22:07:58.524096","MEAN_MOTION":14.25190222,"ECCENTRICITY":0.00147999,"INCLINATION":98.3487,"RA_OF_ASC_NODE":95.4463,"ARG_OF_PERICENTER":132.6624,"MEAN_ANOMALY":227.5807,"EPHEMERIS_TYPE":0,"CLASSIFICATION_TYPE":"U","NORAD_CAT_ID":37389,"ELEMENT_SET_NO":999,"REV_AT_EPOCH":78023,"BSTAR":0.00012504271,"MEAN_MOTION_DOT":2.53e-6,"MEAN_MOTION_DDOT":0},{"OBJECT_NAME":"GCOM-W1 (SHIZUKU)","OBJECT_ID":"2012-025A","EPOCH":"2026-04-25T20:15:22.688640","MEAN_MOTION":14.57119336,"ECCENTRICITY":0.00012714,"INCLINATION":98.1993,"RA_OF_ASC_NODE":57.2026,"ARG_OF_PERICENTER":94.0637,"MEAN_ANOMALY":328.2771,"EPHEMERIS_TYPE":0,"CLASSIFICATION_TYPE":"U","NORAD_CAT_ID":38337,"ELEMENT_SET_NO":999,"REV_AT_EPOCH":74141,"BSTAR":0.00012293531,"MEAN_MOTION_DOT":5.09e-6,"MEAN_MOTION_DDOT":0},{"OBJECT_NAME":"NUSTAR","OBJECT_ID":"2012-031A","EPOCH":"2026-04-26T00:00:02.999808","MEAN_MOTION":15.08286642,"ECCENTRICITY":0.00073573,"INCLINATION":6.026,"RA_OF_ASC_NODE":65.4402,"ARG_OF_PERICENTER":48.1744,"MEAN_ANOMALY":249.6156,"EPHEMERIS_TYPE":0,"CLASSIFICATION_TYPE":"U","NORAD_CAT_ID":38358,"ELEMENT_SET_NO":999,"REV_AT_EPOCH":442,"BSTAR":0.00085145857,"MEAN_MOTION_DOT":0.00014487,"MEAN_MOTION_DDOT":0},{"OBJECT_NAME":"NEOSSAT","OBJECT_ID":"2013-009D","EPOCH":"2026-04-25T22:39:51.293088","MEAN_MOTION":14.35807667,"ECCENTRICITY":0.00118536,"INCLINATION":98.417,"RA_OF_ASC_NODE":297.2217,"ARG_OF_PERICENTER":46.9457,"MEAN_ANOMALY":313.272,"EPHEMERIS_TYPE":0,"CLASSIFICATION_TYPE":"U","NORAD_CAT_ID":39089,"ELEMENT_SET_NO":999,"REV_AT_EPOCH":68924,"BSTAR":6.6559735e-5,"MEAN_MOTION_DOT":1.5e-6,"MEAN_MOTION_DDOT":0},{"OBJECT_NAME":"BRITE-AUSTRIA","OBJECT_ID":"2013-009F","EPOCH":"2026-04-25T11:33:07.213536","MEAN_MOTION":14.3652013,"ECCENTRICITY":0.00109561,"INCLINATION":98.3985,"RA_OF_ASC_NODE":296.2244,"ARG_OF_PERICENTER":42.985,"MEAN_ANOMALY":317.2191,"EPHEMERIS_TYPE":0,"CLASSIFICATION_TYPE":"U","NORAD_CAT_ID":39091,"ELEMENT_SET_NO":999,"REV_AT_EPOCH":68948,"BSTAR":7.2826733e-5,"MEAN_MOTION_DOT":1.71e-6,"MEAN_MOTION_DDOT":0},{"OBJECT_NAME":"IRIS","OBJECT_ID":"2013-033A","EPOCH":"2026-04-25T15:17:06.087264","MEAN_MOTION":14.85771907,"ECCENTRICITY":0.00255685,"INCLINATION":97.937,"RA_OF_ASC_NODE":315.0725,"ARG_OF_PERICENTER":128.9128,"MEAN_ANOMALY":231.4373,"EPHEMERIS_TYPE":0,"CLASSIFICATION_TYPE":"U","NORAD_CAT_ID":39197,"ELEMENT_SET_NO":999,"REV_AT_EPOCH":69257,"BSTAR":0.00011571778,"MEAN_MOTION_DOT":9.55e-6,"MEAN_MOTION_DDOT":0},{"OBJECT_NAME":"HISAKI (SPRINT-A)","OBJECT_ID":"2013-049A","EPOCH":"2026-04-25T16:34:17.383872","MEAN_MOTION":13.55537782,"ECCENTRICITY":0.01366291,"INCLINATION":29.7186,"RA_OF_ASC_NODE":126.9034,"ARG_OF_PERICENTER":311.2903,"MEAN_ANOMALY":47.5975,"EPHEMERIS_TYPE":0,"CLASSIFICATION_TYPE":"U","NORAD_CAT_ID":39253,"ELEMENT_SET_NO":999,"REV_AT_EPOCH":62429,"BSTAR":9.2064536e-5,"MEAN_MOTION_DOT":1.33e-6,"MEAN_MOTION_DDOT":0},{"OBJECT_NAME":"CASSIOPE","OBJECT_ID":"2013-055A","EPOCH":"2026-04-25T20:54:06.903936","MEAN_MOTION":15.21742236,"ECCENTRICITY":0.0303084,"INCLINATION":80.9135,"RA_OF_ASC_NODE":130.0647,"ARG_OF_PERICENTER":237.9185,"MEAN_ANOMALY":119.2295,"EPHEMERIS_TYPE":0,"CLASSIFICATION_TYPE":"U","NORAD_CAT_ID":39265,"ELEMENT_SET_NO":999,"REV_AT_EPOCH":65970,"BSTAR":0.00030037973,"MEAN_MOTION_DOT":0.00025698,"MEAN_MOTION_DDOT":-4.06259e-7},{"OBJECT_NAME":"STSAT-3","OBJECT_ID":"2013-066G","EPOCH":"2026-04-25T21:40:55.603776","MEAN_MOTION":15.02447339,"ECCENTRICITY":0.00087411,"INCLINATION":97.6186,"RA_OF_ASC_NODE":86.6741,"ARG_OF_PERICENTER":192.6235,"MEAN_ANOMALY":167.4773,"EPHEMERIS_TYPE":0,"CLASSIFICATION_TYPE":"U","NORAD_CAT_ID":39422,"ELEMENT_SET_NO":999,"REV_AT_EPOCH":67635,"BSTAR":0.00029022299,"MEAN_MOTION_DOT":3.791e-5,"MEAN_MOTION_DDOT":0},{"OBJECT_NAME":"SWARM B","OBJECT_ID":"2013-067A","EPOCH":"2026-04-25T21:15:20.642976","MEAN_MOTION":15.28238184,"ECCENTRICITY":0.00023773,"INCLINATION":87.7483,"RA_OF_ASC_NODE":358.1971,"ARG_OF_PERICENTER":91.2975,"MEAN_ANOMALY":268.8546,"EPHEMERIS_TYPE":0,"CLASSIFICATION_TYPE":"U","NORAD_CAT_ID":39451,"ELEMENT_SET_NO":999,"REV_AT_EPOCH":67525,"BSTAR":0.0001328887,"MEAN_MOTION_DOT":3.688e-5,"MEAN_MOTION_DDOT":0},{"OBJECT_NAME":"SWARM A","OBJECT_ID":"2013-067B","EPOCH":"2026-04-25T22:30:52.564896","MEAN_MOTION":15.49844029,"ECCENTRICITY":0.00036989,"INCLINATION":87.3305,"RA_OF_ASC_NODE":75.6297,"ARG_OF_PERICENTER":89.4202,"MEAN_ANOMALY":270.7483,"EPHEMERIS_TYPE":0,"CLASSIFICATION_TYPE":"U","NORAD_CAT_ID":39452,"ELEMENT_SET_NO":999,"REV_AT_EPOCH":69815,"BSTAR":0.00024127577,"MEAN_MOTION_DOT":0.00013485,"MEAN_MOTION_DDOT":0},{"OBJECT_NAME":"SWARM C","OBJECT_ID":"2013-067C","EPOCH":"2026-04-25T20:57:48.601152","MEAN_MOTION":15.49843384,"ECCENTRICITY":0.0003711,"INCLINATION":87.3307,"RA_OF_ASC_NODE":74.2349,"ARG_OF_PERICENTER":89.7083,"MEAN_ANOMALY":270.4603,"EPHEMERIS_TYPE":0,"CLASSIFICATION_TYPE":"U","NORAD_CAT_ID":39453,"ELEMENT_SET_NO":999,"REV_AT_EPOCH":69810,"BSTAR":0.00024009451,"MEAN_MOTION_DOT":0.00013419,"MEAN_MOTION_DDOT":0},{"OBJECT_NAME":"BRITE-CA1 (TORONTO)","OBJECT_ID":"2014-033L","EPOCH":"2026-04-25T22:09:30.817440","MEAN_MOTION":14.72596954,"ECCENTRICITY":0.00800581,"INCLINATION":97.9657,"RA_OF_ASC_NODE":245.8412,"ARG_OF_PERICENTER":84.4504,"MEAN_ANOMALY":276.5828,"EPHEMERIS_TYPE":0,"CLASSIFICATION_TYPE":"U","NORAD_CAT_ID":40020,"ELEMENT_SET_NO":999,"REV_AT_EPOCH":63452,"BSTAR":0.00016376078,"MEAN_MOTION_DOT":1.043e-5,"MEAN_MOTION_DDOT":0}]
